ONEWEB-0226             
1 48793U 21045AC  24080.36958101 -.00000009  00000+0 -58210-4 0  9990
2 48793  87.8973  62.1575 0001780  66.6132 293.5185 13.15547483136690
ONEWEB-0224             
1 48794U 21045AD  24080.48524831  .00000106  00000+0  24813-3 0  9990
2 48794  87.8977  62.1518 0001102  94.4170 265.7086 13.15547624136633
ONEWEB-0233             
1 48795U 21045AE  24080.48129193  .00000191  00000+0  47459-3 0  9998
2 48795  87.8976  62.1650 0001916  80.0197 280.1149 13.15547821136655
ONEWEB-0190             
1 48796U 21045AF  24080.47732419  .00000232  00000+0  58264-3 0  9991
2 48796  87.8976  62.1282 0001286  49.4620 310.6622 13.15548881136727
ONEWEB-0236             
1 48797U 21045AG  24080.49475984  .00000037  00000+0  65459-4 0  9993
2 48797  87.8982  62.1152 0001787  87.6969 272.4366 13.15547911136618
ONEWEB-0248             
1 48798U 21045AH  24080.43137562 -.00000043  00000+0 -14782-3 0  9996
2 48798  87.8971  62.1263 0001034  85.3099 274.8149 13.15549019136766
ONEWEB-0225             
1 48799U 21045AJ  24080.45356144  .00000056  00000+0  11563-3 0  9994
2 48799  87.8975  62.1296 0001479  73.3478 286.7815 13.15547911136770
ONEWEB-0215             
1 48800U 21045AK  24080.42344251  .00000010  00000+0 -65236-5 0  9999
2 48800  87.8972  62.1148 0001040  69.8804 290.2438 13.15546513136647
